{
  "type": "FeatureCollection",
  "features": [
    {
      "type": "Feature",
      "properties": {
        "norad_id": 25590,
        "name": "COSMOS 2361",
        "group": "musson",
        "lat": -80.63889475730984,
        "lon": -57.313041005514954,
        "alt_km": 974.3298346661868,
        "timestamp": "2025-12-02T17:49:12.297680+00:00",
        "meta_object_name": "COSMOS 2361",
        "meta_object_id": "1998-076A",
        "meta_epoch": "2025-12-02T11:58:55.160256",
        "meta_mean_motion": 13.73215797,
        "meta_eccentricity": 0.003018,
        "meta_inclination": 82.9342,
        "meta_ra_of_asc_node": 351.6611,
        "meta_arg_of_pericenter": 295.3301,
        "meta_mean_anomaly": 219.0762,
        "meta_ephemeris_type": 0,
        "meta_classification_type": "U",
        "meta_norad_cat_id": 25590,
        "meta_element_set_no": 999,
        "meta_rev_at_epoch": 34970,
        "meta_bstar": 8.6189e-05,
        "meta_mean_motion_dot": 9.5e-07,
        "meta_mean_motion_ddot": 0,
        "tle_line1": "1 25590U 98076A   25336.49924954  .00000095  00000+0  86189-4 0  9995",
        "tle_line2": "2 25590  82.9342 351.6611 0030180 295.3301 219.0762 13.73215797349704"
      },
      "geometry": {
        "type": "Point",
        "coordinates": [
          -57.313041005514954,
          -80.63889475730984
        ]
      }
    },
    {
      "type": "Feature",
      "properties": {
        "norad_id": 26818,
        "name": "COSMOS 2378",
        "group": "musson",
        "lat": -43.64284830180937,
        "lon": 0.33889558190909586,
        "alt_km": 988.2689206509576,
        "timestamp": "2025-12-02T17:49:12.297702+00:00",
        "meta_object_name": "COSMOS 2378",
        "meta_object_id": "2001-023A",
        "meta_epoch": "2025-12-02T11:35:10.216032",
        "meta_mean_motion": 13.74140542,
        "meta_eccentricity": 0.0031883,
        "meta_inclination": 82.928,
        "meta_ra_of_asc_node": 7.3306,
        "meta_arg_of_pericenter": 234.1904,
        "meta_mean_anomaly": 237.2553,
        "meta_ephemeris_type": 0,
        "meta_classification_type": "U",
        "meta_norad_cat_id": 26818,
        "meta_element_set_no": 999,
        "meta_rev_at_epoch": 22782,
        "meta_bstar": 6.4452e-05,
        "meta_mean_motion_dot": 7.6e-07,
        "meta_mean_motion_ddot": 0,
        "tle_line1": "1 26818U 01023A   25336.48275713  .00000076  00000+0  64452-4 0  9994",
        "tle_line2": "2 26818  82.9280   7.3306 0031883 234.1904 237.2553 13.74140542227820"
      },
      "geometry": {
        "type": "Point",
        "coordinates": [
          0.33889558190909586,
          -43.64284830180937
        ]
      }
    },
    {
      "type": "Feature",
      "properties": {
        "norad_id": 27436,
        "name": "COSMOS 2389",
        "group": "musson",
        "lat": 52.80830934889017,
        "lon": 125.0001161750222,
        "alt_km": 948.6508561025757,
        "timestamp": "2025-12-02T17:49:12.297716+00:00",
        "meta_object_name": "COSMOS 2389",
        "meta_object_id": "2002-026A",
        "meta_epoch": "2025-12-02T10:47:54.072096",
        "meta_mean_motion": 13.75152982,
        "meta_eccentricity": 0.0047787,
        "meta_inclination": 82.9494,
        "meta_ra_of_asc_node": 314.6031,
        "meta_arg_of_pericenter": 88.6796,
        "meta_mean_anomaly": 29.9511,
        "meta_ephemeris_type": 0,
        "meta_classification_type": "U",
        "meta_norad_cat_id": 27436,
        "meta_element_set_no": 999,
        "meta_rev_at_epoch": 18007,
        "meta_bstar": 6.8966e-05,
        "meta_mean_motion_dot": 8.2e-07,
        "meta_mean_motion_ddot": 0,
        "tle_line1": "1 27436U 02026A   25336.44993139  .00000082  00000+0  68966-4 0  9991",
        "tle_line2": "2 27436  82.9494 314.6031 0047787  88.6796  29.9511 13.75152982180071"
      },
      "geometry": {
        "type": "Point",
        "coordinates": [
          125.0001161750222,
          52.80830934889017
        ]
      }
    },
    {
      "type": "Feature",
      "properties": {
        "norad_id": 27818,
        "name": "COSMOS 2398",
        "group": "musson",
        "lat": 1.2415232432694243,
        "lon": 99.91210396563234,
        "alt_km": 975.5604558066707,
        "timestamp": "2025-12-02T17:49:12.297728+00:00",
        "meta_object_name": "COSMOS 2398",
        "meta_object_id": "2003-023A",
        "meta_epoch": "2025-12-02T08:45:35.572320",
        "meta_mean_motion": 13.7238416,
        "meta_eccentricity": 0.0032179,
        "meta_inclination": 82.9473,
        "meta_ra_of_asc_node": 280.344,
        "meta_arg_of_pericenter": 139.6647,
        "meta_mean_anomaly": 334.6694,
        "meta_ephemeris_type": 0,
        "meta_classification_type": "U",
        "meta_norad_cat_id": 27818,
        "meta_element_set_no": 999,
        "meta_rev_at_epoch": 12674,
        "meta_bstar": 4.0741e-05,
        "meta_mean_motion_dot": 5.3e-07,
        "meta_mean_motion_ddot": 0,
        "tle_line1": "1 27818U 03023A   25336.36499505  .00000053  00000+0  40741-4 0  9991",
        "tle_line2": "2 27818  82.9473 280.3440 0032179 139.6647 334.6694 13.72384160126740"
      },
      "geometry": {
        "type": "Point",
        "coordinates": [
          99.91210396563234,
          1.2415232432694243
        ]
      }
    },
    {
      "type": "Feature",
      "properties": {
        "norad_id": 28380,
        "name": "COSMOS 2407",
        "group": "musson",
        "lat": -52.679544291049915,
        "lon": 49.61991791855012,
        "alt_km": 1010.0962660418554,
        "timestamp": "2025-12-02T17:49:12.297739+00:00",
        "meta_object_name": "COSMOS 2407",
        "meta_object_id": "2004-028A",
        "meta_epoch": "2025-12-02T05:02:02.311872",
        "meta_mean_motion": 13.76311785,
        "meta_eccentricity": 0.00405538,
        "meta_inclination": 82.9615,
        "meta_ra_of_asc_node": 220.6883,
        "meta_arg_of_pericenter": 83.3867,
        "meta_mean_anomaly": 31.4092,
        "meta_ephemeris_type": 0,
        "meta_classification_type": "U",
        "meta_norad_cat_id": 28380,
        "meta_element_set_no": 999,
        "meta_rev_at_epoch": 7278,
        "meta_bstar": 7.6000487e-05,
        "meta_mean_motion_dot": 9e-07,
        "meta_mean_motion_ddot": 0,
        "tle_line1": "1 28380U 04028A   25336.20974898  .00000090  00000+0  76000-4 0  9996",
        "tle_line2": "2 28380  82.9615 220.6883 0040553  83.3867  31.4092 13.76311785 72780"
      },
      "geometry": {
        "type": "Point",
        "coordinates": [
          49.61991791855012,
          -52.679544291049915
        ]
      }
    },
    {
      "type": "Feature",
      "properties": {
        "norad_id": 28521,
        "name": "COSMOS 2414",
        "group": "musson",
        "lat": 77.26984469032479,
        "lon": -134.56622319763514,
        "alt_km": 927.8114546978468,
        "timestamp": "2025-12-02T17:49:12.297750+00:00",
        "meta_object_name": "COSMOS 2414",
        "meta_object_id": "2005-002A",
        "meta_epoch": "2025-12-02T08:47:10.253760",
        "meta_mean_motion": 13.87900787,
        "meta_eccentricity": 0.0040257,
        "meta_inclination": 82.9498,
        "meta_ra_of_asc_node": 192.5036,
        "meta_arg_of_pericenter": 168.8596,
        "meta_mean_anomaly": 191.3468,
        "meta_ephemeris_type": 0,
        "meta_classification_type": "U",
        "meta_norad_cat_id": 28521,
        "meta_element_set_no": 999,
        "meta_rev_at_epoch": 5651,
        "meta_bstar": 8.1631e-05,
        "meta_mean_motion_dot": 1.14e-06,
        "meta_mean_motion_ddot": 0,
        "tle_line1": "1 28521U 05002A   25336.36609090  .00000114  00000+0  81631-4 0  9995",
        "tle_line2": "2 28521  82.9498 192.5036 0040257 168.8596 191.3468 13.87900787 56516"
      },
      "geometry": {
        "type": "Point",
        "coordinates": [
          -134.56622319763514,
          77.26984469032479
        ]
      }
    },
    {
      "type": "Feature",
      "properties": {
        "norad_id": 32052,
        "name": "COSMOS 2429",
        "group": "musson",
        "lat": -47.75442515275545,
        "lon": -17.117211914682457,
        "alt_km": 999.3371687053268,
        "timestamp": "2025-12-02T17:49:12.297762+00:00",
        "meta_object_name": "COSMOS 2429",
        "meta_object_id": "2007-038A",
        "meta_epoch": "2025-12-02T11:04:09.044256",
        "meta_mean_motion": 13.75147891,
        "meta_eccentricity": 0.0039656,
        "meta_inclination": 82.9806,
        "meta_ra_of_asc_node": 350.8867,
        "meta_arg_of_pericenter": 65.8031,
        "meta_mean_anomaly": 294.7262,
        "meta_ephemeris_type": 0,
        "meta_classification_type": "U",
        "meta_norad_cat_id": 32052,
        "meta_element_set_no": 999,
        "meta_rev_at_epoch": 91461,
        "meta_bstar": 7.5511e-05,
        "meta_mean_motion_dot": 8.8e-07,
        "meta_mean_motion_ddot": 0,
        "tle_line1": "1 32052U 07038A   25336.46121579  .00000088  00000+0  75511-4 0  9992",
        "tle_line2": "2 32052  82.9806 350.8867 0039656  65.8031 294.7262 13.75147891914615"
      },
      "geometry": {
        "type": "Point",
        "coordinates": [
          -17.117211914682457,
          -47.75442515275545
        ]
      }
    },
    {
      "type": "Feature",
      "properties": {
        "norad_id": 35635,
        "name": "COSMOS 2454",
        "group": "musson",
        "lat": 56.3736207635774,
        "lon": -173.0623011184491,
        "alt_km": 912.5917691029999,
        "timestamp": "2025-12-02T17:49:12.297772+00:00",
        "meta_object_name": "COSMOS 2454",
        "meta_object_id": "2009-039A",
        "meta_epoch": "2025-12-02T12:39:16.932384",
        "meta_mean_motion": 13.89926607,
        "meta_eccentricity": 0.0020475,
        "meta_inclination": 82.9557,
        "meta_ra_of_asc_node": 176.3863,
        "meta_arg_of_pericenter": 101.0271,
        "meta_mean_anomaly": 319.9184,
        "meta_ephemeris_type": 0,
        "meta_classification_type": "U",
        "meta_norad_cat_id": 35635,
        "meta_element_set_no": 999,
        "meta_rev_at_epoch": 83008,
        "meta_bstar": 7.3072e-05,
        "meta_mean_motion_dot": 1.06e-06,
        "meta_mean_motion_ddot": 0,
        "tle_line1": "1 35635U 09039A   25336.52727931  .00000106  00000+0  73072-4 0  9997",
        "tle_line2": "2 35635  82.9557 176.3863 0020475 101.0271 319.9184 13.89926607830089"
      },
      "geometry": {
        "type": "Point",
        "coordinates": [
          -173.0623011184491,
          56.3736207635774
        ]
      }
    },
    {
      "type": "Feature",
      "properties": {
        "norad_id": 36519,
        "name": "COSMOS 2463",
        "group": "musson",
        "lat": 34.49960117845008,
        "lon": 38.92882266713935,
        "alt_km": 985.9479463121543,
        "timestamp": "2025-12-02T17:49:12.297782+00:00",
        "meta_object_name": "COSMOS 2463",
        "meta_object_id": "2010-017A",
        "meta_epoch": "2025-12-02T07:29:43.260864",
        "meta_mean_motion": 13.71647725,
        "meta_eccentricity": 0.0035132,
        "meta_inclination": 82.9622,
        "meta_ra_of_asc_node": 34.3746,
        "meta_arg_of_pericenter": 317.9509,
        "meta_mean_anomaly": 113.4537,
        "meta_ephemeris_type": 0,
        "meta_classification_type": "U",
        "meta_norad_cat_id": 36519,
        "meta_element_set_no": 999,
        "meta_rev_at_epoch": 78094,
        "meta_bstar": 7.1296e-05,
        "meta_mean_motion_dot": 7.9e-07,
        "meta_mean_motion_ddot": 0,
        "tle_line1": "1 36519U 10017A   25336.31230626  .00000079  00000+0  71296-4 0  9999",
        "tle_line2": "2 36519  82.9622  34.3746 0035132 317.9509 113.4537 13.71647725780945"
      },
      "geometry": {
        "type": "Point",
        "coordinates": [
          38.92882266713935,
          34.49960117845008
        ]
      }
    }
  ]
}